{
  "type": "FeatureCollection",
  "features": [
    {
      "type": "Feature",
      "properties": {
        "norad_id": 57400,
        "name": "TIANMU-1 08",
        "group": "weather",
        "lat": 82.67937660535765,
        "lon": -66.21463182975828,
        "alt_km": 469.7047173965093,
        "timestamp": "2025-12-04T23:34:05.374540+00:00",
        "meta_object_name": "TIANMU-1 08",
        "meta_object_id": "2023-101B",
        "meta_epoch": "2025-12-04T18:27:28.016928",
        "meta_mean_motion": 15.27879754,
        "meta_eccentricity": 0.0007476,
        "meta_inclination": 97.2878,
        "meta_ra_of_asc_node": 28.5955,
        "meta_arg_of_pericenter": 106.2708,
        "meta_mean_anomaly": 253.9354,
        "meta_ephemeris_type": 0,
        "meta_classification_type": "U",
        "meta_norad_cat_id": 57400,
        "meta_element_set_no": 999,
        "meta_rev_at_epoch": 13193,
        "meta_bstar": 0.00057632,
        "meta_mean_motion_dot": 0.00015641,
        "meta_mean_motion_ddot": 0,
        "tle_line1": "1 57400U 23101B   25338.76907427  .00015641  00000+0  57632-3 0  9998",
        "tle_line2": "2 57400  97.2878  28.5955 0007476 106.2708 253.9354 15.27879754131934"
      },
      "geometry": {
        "type": "Point",
        "coordinates": [
          -66.21463182975828,
          82.67937660535765
        ]
      }
    },
    {
      "type": "Feature",
      "properties": {
        "norad_id": 57401,
        "name": "TIANMU-1 09",
        "group": "weather",
        "lat": 17.11495637443285,
        "lon": -149.4218351027574,
        "alt_km": 480.2182756331531,
        "timestamp": "2025-12-04T23:34:05.374553+00:00",
        "meta_object_name": "TIANMU-1 09",
        "meta_object_id": "2023-101C",
        "meta_epoch": "2025-12-04T18:08:38.049216",
        "meta_mean_motion": 15.27903646,
        "meta_eccentricity": 0.0006767,
        "meta_inclination": 97.2835,
        "meta_ra_of_asc_node": 28.1002,
        "meta_arg_of_pericenter": 105.456,
        "meta_mean_anomaly": 254.7427,
        "meta_ephemeris_type": 0,
        "meta_classification_type": "U",
        "meta_norad_cat_id": 57401,
        "meta_element_set_no": 999,
        "meta_rev_at_epoch": 13193,
        "meta_bstar": 0.0006083,
        "meta_mean_motion_dot": 0.00016525,
        "meta_mean_motion_ddot": 0,
        "tle_line1": "1 57401U 23101C   25338.75599594  .00016525  00000+0  60830-3 0  9996",
        "tle_line2": "2 57401  97.2835  28.1002 0006767 105.4560 254.7427 15.27903646131934"
      },
      "geometry": {
        "type": "Point",
        "coordinates": [
          -149.4218351027574,
          17.11495637443285
        ]
      }
    },
    {
      "type": "Feature",
      "properties": {
        "norad_id": 57402,
        "name": "TIANMU-1 10",
        "group": "weather",
        "lat": -25.229214067977832,
        "lon": 32.62159385113261,
        "alt_km": 491.6365165213765,
        "timestamp": "2025-12-04T23:34:05.374564+00:00",
        "meta_object_name": "TIANMU-1 10",
        "meta_object_id": "2023-101D",
        "meta_epoch": "2025-12-04T17:23:31.882848",
        "meta_mean_motion": 15.27892696,
        "meta_eccentricity": 0.0008541,
        "meta_inclination": 97.2915,
        "meta_ra_of_asc_node": 28.911,
        "meta_arg_of_pericenter": 106.4919,
        "meta_mean_anomaly": 253.7259,
        "meta_ephemeris_type": 0,
        "meta_classification_type": "U",
        "meta_norad_cat_id": 57402,
        "meta_element_set_no": 999,
        "meta_rev_at_epoch": 13192,
        "meta_bstar": 0.00056241,
        "meta_mean_motion_dot": 0.00015271,
        "meta_mean_motion_ddot": 0,
        "tle_line1": "1 57402U 23101D   25338.72467457  .00015271  00000+0  56241-3 0  9994",
        "tle_line2": "2 57402  97.2915  28.9110 0008541 106.4919 253.7259 15.27892696131926"
      },
      "geometry": {
        "type": "Point",
        "coordinates": [
          32.62159385113261,
          -25.229214067977832
        ]
      }
    },
    {
      "type": "Feature",
      "properties": {
        "norad_id": 57490,
        "name": "FENGYUN 3F",
        "group": "weather",
        "lat": 7.878315168389492,
        "lon": 46.18491438279429,
        "alt_km": 827.4698296027145,
        "timestamp": "2025-12-04T23:34:05.374575+00:00",
        "meta_object_name": "FENGYUN 3F",
        "meta_object_id": "2023-111A",
        "meta_epoch": "2025-12-04T18:27:25.396416",
        "meta_mean_motion": 14.19890321,
        "meta_eccentricity": 6.75e-05,
        "meta_inclination": 98.7094,
        "meta_ra_of_asc_node": 47.1908,
        "meta_arg_of_pericenter": 88.6249,
        "meta_mean_anomaly": 271.5005,
        "meta_ephemeris_type": 0,
        "meta_classification_type": "U",
        "meta_norad_cat_id": 57490,
        "meta_element_set_no": 999,
        "meta_rev_at_epoch": 12127,
        "meta_bstar": 0.00010818,
        "meta_mean_motion_dot": 1.86e-06,
        "meta_mean_motion_ddot": 0,
        "tle_line1": "1 57490U 23111A   25338.76904394  .00000186  00000+0  10818-3 0  9991",
        "tle_line2": "2 57490  98.7094  47.1908 0000675  88.6249 271.5005 14.19890321121279"
      },
      "geometry": {
        "type": "Point",
        "coordinates": [
          46.18491438279429,
          7.878315168389492
        ]
      }
    },
    {
      "type": "Feature",
      "properties": {
        "norad_id": 58584,
        "name": "ARKTIKA-M 2",
        "group": "weather",
        "lat": 56.72189855930705,
        "lon": -133.9376842540501,
        "alt_km": 33799.532506849435,
        "timestamp": "2025-12-04T23:34:05.374588+00:00",
        "meta_object_name": "ARKTIKA-M 2",
        "meta_object_id": "2023-198A",
        "meta_epoch": "2025-12-03T08:34:19.284960",
        "meta_mean_motion": 2.00605176,
        "meta_eccentricity": 0.68642509,
        "meta_inclination": 63.2223,
        "meta_ra_of_asc_node": 175.9121,
        "meta_arg_of_pericenter": 268.1397,
        "meta_mean_anomaly": 18.842,
        "meta_ephemeris_type": 0,
        "meta_classification_type": "U",
        "meta_norad_cat_id": 58584,
        "meta_element_set_no": 999,
        "meta_rev_at_epoch": 1439,
        "meta_bstar": 0,
        "meta_mean_motion_dot": 2.24e-06,
        "meta_mean_motion_ddot": 0,
        "tle_line1": "1 58584U 23198A   25337.35716765  .00000224  00000+0  00000+0 0  9999",
        "tle_line2": "2 58584  63.2223 175.9121 6864250 268.1397  18.8420  2.00605176 14390"
      },
      "geometry": {
        "type": "Point",
        "coordinates": [
          -133.9376842540501,
          56.72189855930705
        ]
      }
    },
    {
      "type": "Feature",
      "properties": {
        "norad_id": 58645,
        "name": "TIANMU-1 11",
        "group": "weather",
        "lat": -68.97212043515466,
        "lon": 159.09314255915444,
        "alt_km": 499.79590416886913,
        "timestamp": "2025-12-04T23:34:05.374601+00:00",
        "meta_object_name": "TIANMU-1 11",
        "meta_object_id": "2023-205A",
        "meta_epoch": "2025-12-04T17:44:49.966944",
        "meta_mean_motion": 15.24450808,
        "meta_eccentricity": 0.0008687,
        "meta_inclination": 97.3606,
        "meta_ra_of_asc_node": 358.5045,
        "meta_arg_of_pericenter": 341.9312,
        "meta_mean_anomaly": 18.1615,
        "meta_ephemeris_type": 0,
        "meta_classification_type": "U",
        "meta_norad_cat_id": 58645,
        "meta_element_set_no": 999,
        "meta_rev_at_epoch": 10787,
        "meta_bstar": 0.00055504,
        "meta_mean_motion_dot": 0.00013581,
        "meta_mean_motion_ddot": 0,
        "tle_line1": "1 58645U 23205A   25338.73946721  .00013581  00000+0  55504-3 0  9999",
        "tle_line2": "2 58645  97.3606 358.5045 0008687 341.9312  18.1615 15.24450808107875"
      },
      "geometry": {
        "type": "Point",
        "coordinates": [
          159.09314255915444,
          -68.97212043515466
        ]
      }
    },
    {
      "type": "Feature",
      "properties": {
        "norad_id": 58646,
        "name": "TIANMU-1 12",
        "group": "weather",
        "lat": 72.8359232827023,
        "lon": -156.71216516612824,
        "alt_km": 489.0755346354108,
        "timestamp": "2025-12-04T23:34:05.374611+00:00",
        "meta_object_name": "TIANMU-1 12",
        "meta_object_id": "2023-205B",
        "meta_epoch": "2025-12-04T18:22:50.401632",
        "meta_mean_motion": 15.24364412,
        "meta_eccentricity": 0.0006505,
        "meta_inclination": 97.3593,
        "meta_ra_of_asc_node": 358.3386,
        "meta_arg_of_pericenter": 327.358,
        "meta_mean_anomaly": 32.7254,
        "meta_ephemeris_type": 0,
        "meta_classification_type": "U",
        "meta_norad_cat_id": 58646,
        "meta_element_set_no": 999,
        "meta_rev_at_epoch": 10786,
        "meta_bstar": 0.0005265,
        "meta_mean_motion_dot": 0.00012838,
        "meta_mean_motion_ddot": 0,
        "tle_line1": "1 58646U 23205B   25338.76586113  .00012838  00000+0  52650-3 0  9991",
        "tle_line2": "2 58646  97.3593 358.3386 0006505 327.3580  32.7254 15.24364412107864"
      },
      "geometry": {
        "type": "Point",
        "coordinates": [
          -156.71216516612824,
          72.8359232827023
        ]
      }
    }
  ]
}